[
    {
        "Altitude(m)": 604234.6122230062,
        "Argument of Periapsis(deg)": 0.0,
        "Eccentricity": 0.0,
        "Inclination(deg)": 60.0,
        "Latitude(deg)": 14.117252833778597,
        "Longitude(deg)": 21.72730400957265,
        "Mean Anomaly(deg)": -196.36359999999993,
        "RAAN(deg)": 310.0,
        "Satellite Name": "Test1 1374",
        "Satellite Number": 1374,
        "Semi-Major Axis(m)": 6980739.136638005,
        "Time(s)": 0
    },
    {
        "Altitude(m)": 604223.4407667618,
        "Argument of Periapsis(deg)": 0.00010418945913296404,
        "Eccentricity": 0.0,
        "Inclination(deg)": 60.0,
        "Latitude(deg)": 13.58238967291842,
        "Longitude(deg)": 22.014214124694004,
        "Mean Anomaly(deg)": -195.7434938545382,
        "RAAN(deg)": 309.99957995086027,
        "Satellite Name": "Test1 1374",
        "Satellite Number": 1374,
        "Semi-Major Axis(m)": 6980739.136638005,
        "Time(s)": 10
    }
]